ONEWEB-0199             
1 48234U 21031AA  25293.18594904  .00000222  00000+0  56498-3 0  9999
2 48234  87.9031 337.4996 0001741 100.3319 259.8008 13.14504255216733
ONEWEB-0203             
1 48235U 21031AB  25293.17644405  .00000087  00000+0  20051-3 0  9996
2 48235  87.9030 337.5027 0001964 105.1715 254.9632 13.14503380216747
ONEWEB-0197             
1 48236U 21031AC  25293.15092737 -.00000258  00000+0 -72976-3 0  9995
2 48236  87.9033 337.5058 0001727  87.1107 273.0221 13.14503728216658
ONEWEB-0194             
1 48237U 21031AD  25293.20657834  .00000104  00000+0  24543-3 0  9992
2 48237  87.9036 337.5110 0001721 103.7609 256.3713 13.14502202216833
ONEWEB-0193             
1 48238U 21031AE  25293.14629343 -.00001331  00000+0 -36252-2 0  9994
2 48238  87.9026 337.5191 0001556 108.9786 251.1513 13.14506620216773
ONEWEB-0191             
1 48239U 21031AF  25293.15740125 -.00000143  00000+0 -41956-3 0  9996
2 48239  87.9042 337.5018 0001811  97.2103 262.9232 13.14504425216631
ONEWEB-0195             
1 48240U 21031AG  25293.13442275  .00000003  00000+0 -26341-4 0  9997
2 48240  87.9043 337.5024 0002282  98.2591 261.8798 13.14501285216610
ONEWEB-0201             
1 48241U 21031AH  25293.19878968  .00000244  00000+0  62241-3 0  9990
2 48241  87.9026 337.5373 0002020  88.6497 271.4864 13.14503212216856
